     2.100          NAVIGATION                              RINEX VERSION / TYPE
fic2rin                                 04/16/2009 01:27:34 PGM / RUN BY / DATE
                                                            END OF HEADER
 8 09  4 15  6  0  0.0 -.198541209102D-03 -.170530256582D-11  .000000000000D+00
     .850000000000D+02 -.732500000000D+02  .388551899032D-08 -.550269888538D+00
    -.391341745853D-05  .105156039353D-01  .652857124805D-05  .515366262054D+04
     .280800000000D+06  .165775418282D-06 -.272646904779D+01 -.117346644402D-06
     .988269259919D+00  .264937500000D+03  .298621517203D+01 -.783996942334D-08
     .147148986489D-09  .100000000000D+01  .152700000000D+04  .000000000000D+00
     .240000000000D+01  .000000000000D+00 -.465661287308D-08  .850000000000D+02
     .273606000000D+06  .400000000000D+01
 9 09  4 15  6  0  0.0  .508250668645D-04  .204636307899D-11  .000000000000D+00
     .890000000000D+02 -.641562500000D+02  .426982071231D-08 -.791364323683D+00
    -.320933759212D-05  .203589717858D-01  .679679214954D-05  .515364264297D+04
     .280800000000D+06 -.283122062683D-06 -.282021904839D+01  .160187482834D-06
     .976037755045D+00  .263781250000D+03  .146807814975D+01 -.826284418063D-08
     .104647216119D-09  .100000000000D+01  .152700000000D+04  .000000000000D+00
     .340000000000D+01  .000000000000D+00 -.558793544769D-08  .890000000000D+02
     .273606000000D+06  .400000000000D+01
10 09  4 15  6  0  0.0 -.143880024552D-04 -.682121026330D-12  .000000000000D+00
     .840000000000D+02  .827500000000D+02  .434839541384D-08  .279092308542D+01
     .424869358540D-05  .865038787015D-02  .689737498760D-05  .515358422089D+04
     .280800000000D+06  .558793544769D-08  .142694077925D+01 -.987201929092D-07
     .958711863249D+00  .246781250000D+03  .618826772093D+00 -.791640117846D-08
     .267868300647D-10  .100000000000D+01  .152700000000D+04  .000000000000D+00
     .240000000000D+01  .000000000000D+00 -.279396772385D-08  .840000000000D+02
     .273606000000D+06  .400000000000D+01
11 09  4 15  6  0  0.0  .113714486361D-05 -.136424205266D-11  .000000000000D+00
     .960000000000D+02  .643750000000D+01  .630061958895D-08 -.581222911982D-02
     .417232513428D-06  .928087299690D-02  .753067433834D-05  .515367537498D+04
     .280800000000D+06  .521540641785D-07  .144843930108D+00  .126659870148D-06
     .890039553994D+00  .192250000000D+03  .693439776619D+00 -.890965683726D-08
    -.437161066656D-09  .100000000000D+01  .152700000000D+04  .000000000000D+00
     .340000000000D+01  .000000000000D+00 -.121071934700D-07  .960000000000D+02
     .273606000000D+06  .400000000000D+01
12 09  4 15  6  0  0.0 -.293994322419D-03  .477484718431D-11  .000000000000D+00
     .610000000000D+02 -.314062500000D+02  .458554814934D-08  .256000302023D+00
    -.167451798916D-05  .335814512800D-02  .845268368721D-05  .515367805481D+04
     .280800000000D+06  .130385160446D-07 -.173424829253D+01 -.596046447754D-07
     .966257638589D+00  .223375000000D+03 -.759021690449D+00 -.794675958586D-08
     .321799118511D-09  .100000000000D+01  .152700000000D+04  .000000000000D+00
     .240000000000D+01  .000000000000D+00 -.121071934700D-07  .610000000000D+02
     .273606000000D+06  .400000000000D+01
13 09  4 15  6  0  0.0  .294540543109D-03  .102318153949D-11  .000000000000D+00
     .410000000000D+02  .943750000000D+01  .371872632845D-08  .256371103041D+01
     .454485416412D-06  .403695635032D-02  .325590372086D-05  .515372756958D+04
     .280800000000D+06  .372529029846D-08  .250663013061D+01 -.372529029846D-08
     .995044563120D+00  .334812500000D+03  .153296858901D+01 -.783354058412D-08
     .703600736366D-10  .100000000000D+01  .152700000000D+04  .000000000000D+00
     .240000000000D+01  .000000000000D+00 -.111758708954D-07  .410000000000D+02
     .273606000000D+06  .400000000000D+01
14 09  4 15  6  0  0.0 -.125608872622D-03  .579802872380D-11  .000000000000D+00
     .290000000000D+02  .409375000000D+01  .386230373760D-08  .230137405191D+01
     .387430191040D-06  .435873446986D-02  .303797423840D-05  .515359366989D+04
     .280800000000D+06  .279396772385D-07  .248738803264D+01 -.156462192535D-06
     .988566355174D+00  .334875000000D+03 -.212935080819D+01 -.790282918456D-08
     .133576992589D-09  .100000000000D+01  .152700000000D+04  .000000000000D+00
     .240000000000D+01  .000000000000D+00 -.931322574615D-08  .290000000000D+02
     .273606000000D+06  .400000000000D+01
15 09  4 15  6  0  0.0 -.281266868114D-03 -.432009983342D-11  .000000000000D+00
     .630000000000D+02  .881250000000D+01  .461804950316D-08  .255043009686D+01
     .422820448875D-06  .142947956920D-02  .299885869026D-05  .515360787010D+04
     .280800000000D+06  .298023223877D-07  .243625219785D+01  .391155481339D-07
     .956595645454D+00  .317218750000D+03 -.515797190989D+00 -.829963142725D-08
     .589310261424D-10  .100000000000D+01  .152700000000D+04  .000000000000D+00
     .240000000000D+01  .000000000000D+00 -.977888703346D-08  .630000000000D+02
     .273606000000D+06  .400000000000D+01
16 09  4 15  6  0  0.0  .593061558902D-04 -.318323145621D-11  .000000000000D+00
     .100000000000D+03 -.379687500000D+02  .448232956416D-08 -.226454987886D+01
    -.193715095520D-05  .530127412640D-02  .902265310287D-05  .515379899979D+04
     .280800000000D+06 -.171363353729D-06 -.171735577120D+01 -.186264514923D-08
     .967731116011D+00  .211281250000D+03 -.369924927487D+00 -.780675375406D-08
     .375729936374D-09  .100000000000D+01  .152700000000D+04  .000000000000D+00
     .240000000000D+01  .000000000000D+00 -.977888703346D-08  .100000000000D+03
     .273606000000D+06  .400000000000D+01
17 09  4 15  6  0  0.0  .543477945030D-04  .159161572810D-11  .000000000000D+00
     .530000000000D+02 -.111250000000D+02  .474055460598D-08  .293514484964D+01
    -.678002834320D-06  .441848125774D-02  .691786408424D-05  .515366136551D+04
     .280800000000D+06 -.596046447754D-07 -.674841334810D+00 -.596046447754D-07
     .959708171903D+00  .244187500000D+03 -.267403870605D+01 -.792461580634D-08
    -.882179603464D-10  .100000000000D+01  .152700000000D+04  .000000000000D+00
     .240000000000D+01  .000000000000D+00 -.102445483208D-07  .530000000000D+02
     .273606000000D+06  .400000000000D+01
18 09  4 15  6  0  0.0 -.654822215438D-04  .341060513165D-11  .000000000000D+00
     .300000000000D+02  .879687500000D+02  .463197865479D-08 -.210302475325D+01
     .448338687420D-05  .101649359567D-01  .607781112194D-05  .515358971786D+04
     .280800000000D+06 -.186264514923D-08  .143302565388D+01 -.160187482834D-06
     .942765351058D+00  .255250000000D+03 -.242789981045D+01 -.794890253227D-08
     .921466954226D-10  .100000000000D+01  .152700000000D+04  .000000000000D+00
     .240000000000D+01  .000000000000D+00 -.107102096081D-07  .300000000000D+02
     .273606000000D+06  .400000000000D+01
19 09  4 15  6  0  0.0  .282721593976D-04 -.909494701773D-12  .000000000000D+00
     .150000000000D+02 -.136250000000D+02  .492020494629D-08  .228191808556D+01
    -.450760126114D-06  .544822704978D-02  .675395131111D-05  .515358406258D+04
     .280800000000D+06  .577419996262D-07 -.618661610105D+00  .149011611938D-06
     .957472155747D+00  .247750000000D+03 -.375227329656D+00 -.803640617715D-08
    -.132505519387D-09  .100000000000D+01  .152700000000D+04  .000000000000D+00
     .240000000000D+01  .000000000000D+00 -.149011611938D-07  .150000000000D+02
     .273606000000D+06  .400000000000D+01
20 09  4 15  6  0  0.0  .853030942380D-04 -.102318153949D-11  .000000000000D+00
     .105000000000D+03  .100125000000D+03  .469055252320D-08 -.193727995016D+01
     .514835119247D-05  .403587741312D-02  .713206827641D-05  .515363735008D+04
     .280800000000D+06  .106170773506D-06  .137918493476D+01 -.745058059692D-08
     .942415691693D+00  .232093750000D+03  .134207376937D+01 -.811783814054D-08
    -.807176479283D-10  .100000000000D+01  .152700000000D+04  .000000000000D+00
     .340000000000D+01  .000000000000D+00 -.651925802231D-08  .105000000000D+03
     .273606000000D+06  .400000000000D+01
21 09  4 15  6  0  0.0  .191745348275D-04 -.204636307899D-11  .000000000000D+00
     .560000000000D+02  .242500000000D+02  .502056626959D-08 -.795364216741D+00
     .116042792797D-05  .150166752283D-01  .829249620438D-05  .515362392616D+04
     .280800000000D+06  .359490513802D-06  .374570723746D+00  .175088644028D-06
     .934675453579D+00  .204781250000D+03 -.262193958944D+01 -.825105797540D-08
    -.455376111100D-09  .100000000000D+01  .152700000000D+04  .000000000000D+00
     .240000000000D+01  .000000000000D+00 -.116415321827D-07  .560000000000D+02
     .273606000000D+06  .400000000000D+01
22 09  4 15  6  0  0.0  .201591290534D-03 -.909494701773D-12  .000000000000D+00
     .910000000000D+02  .900000000000D+02  .467376610969D-08  .313384483317D+01
     .460073351860D-05  .488750590011D-02  .636838376522D-05  .515366195869D+04
     .280800000000D+06 -.204890966415D-07  .143880346200D+01  .260770320892D-07
     .940425216096D+00  .247406250000D+03 -.185842498060D+01 -.800783355841D-08
     .275011455331D-10  .100000000000D+01  .152700000000D+04  .000000000000D+00
     .485000000000D+01  .000000000000D+00 -.181607902050D-07  .910000000000D+02
     .273606000000D+06  .400000000000D+01
23 09  4 15  6  0  0.0  .389398075640D-03  .341060513165D-12  .000000000000D+00
     .390000000000D+02  .146875000000D+02  .432589447658D-08  .174417280046D+01
     .739470124245D-06  .594038935378D-02  .278279185295D-05  .515362501717D+04
     .280800000000D+06 -.298023223877D-07  .245562280732D+01  .633299350739D-07
     .970553531176D+00  .331000000000D+03  .287376286828D+01 -.816284001505D-08
    -.357157734196D-12  .100000000000D+01  .152700000000D+04  .000000000000D+00
     .240000000000D+01  .000000000000D+00 -.200234353542D-07  .390000000000D+02
     .273606000000D+06  .400000000000D+01
